STARLINK-31530
1 59322U 24057C   26061.16668981  .00118785  00000+0  31449-2 0  9991
2 59322  42.9977 228.2785 0011038 312.4997  38.0601 15.37174038  5690
STARLINK-32477
1 62038U 24216G   26061.16668981  .00168449  00000+0  44249-2 0  9990
2 62038  42.9979 293.6230 0011803 250.1956 161.8117 15.37185394  5856
